NORAD_CAT_ID,OBJECT_NAME,OBJECT_TYPE,EPOCH,MEAN_MOTION,ECCENTRICITY,INCLINATION,RA_OF_ASC_NODE,ARG_OF_PERICENTER,MEAN_ANOMALY,BSTAR,MEAN_MOTION_DOT,MEAN_MOTION_DDOT,TLE_LINE0,TLE_LINE1,TLE_LINE2,SEMIMAJOR_AXIS,PERIOD,APOGEE,PERIGEE,DECAYED
52996.0,STARLINK-4295,PAYLOAD,2023-11-04 19:24:38,15.0884542,0.0001516,53.2175,336.3226,88.2019,271.9147,0.00023556,3.463e-05,0.0,0 STARLINK-4295,1 52996U 22076L   23308.80878167  .00003463  00000-0  23556-3 0  9999,2 52996  53.2175 336.3226 0001516  88.2019 271.9147 15.08845420 73639,6917.864,95.437,540.778,538.68,0.0
52996.0,STARLINK-4295,PAYLOAD,2023-11-05 08:07:43,15.08860232,0.0001534,53.2169,333.9428,91.6874,268.4294,0.00085785,0.00013399,0.0,0 STARLINK-4295,1 52996U 22076L   23309.33869921  .00013399  00000-0  85785-3 0  9997,2 52996  53.2169 333.9428 0001534  91.6874 268.4294 15.08860232 74189,6917.819,95.436,540.745,538.622,0.0
52996.0,STARLINK-4295,PAYLOAD,2023-11-05 19:15:25,15.08850868,0.0001675,53.2179,331.8594,92.1159,268.0025,0.00037755,5.728e-05,0.0,0 STARLINK-4295,1 52996U 22076L   23309.80237974  .00005728  00000-0  37755-3 0  9997,2 52996  53.2179 331.8594 0001675  92.1159 268.0025 15.08850868 74259,6917.847,95.437,540.871,538.553,0.0
52996.0,STARLINK-4295,PAYLOAD,2023-11-06 11:09:15,15.08884447,0.0001868,53.2178,328.886,87.4535,272.6671,0.0013924,0.00021969,0.0,0 STARLINK-4295,1 52996U 22076L   23310.46476689  .00021969  00000-0  13924-2 0  9995,2 52996  53.2178 328.8860 0001868  87.4535 272.6671 15.08884447 74358,6917.745,95.435,540.902,538.317,0.0
52996.0,STARLINK-4295,PAYLOAD,2023-11-07 01:27:45,15.08813038,0.0001433,53.2166,326.2112,73.3593,286.7556,-0.00042946,-7.111e-05,0.0,0 STARLINK-4295,1 52996U 22076L   23311.06094691 -.00007111  00000-0 -42946-3 0  9993,2 52996  53.2166 326.2112 0001433  73.3593 286.7556 15.08813038 74449,6917.963,95.439,540.819,538.836,0.0
52996.0,STARLINK-4295,PAYLOAD,2023-11-07 11:00:06,15.08785113,0.0001382,53.2181,324.4273,96.955,263.1599,0.0014678,0.00023114,0.0,0 STARLINK-4295,1 52996U 22076L   23311.45840367  .00023114  00000-0  14678-2 0  9994,2 52996  53.2181 324.4273 0001382  96.9550 263.1599 15.08785113 74506,6918.048,95.441,540.869,538.957,0.0
52996.0,STARLINK-4295,PAYLOAD,2023-11-08 01:18:34,15.08854034,0.0001842,53.2178,321.7497,107.6408,252.4785,0.0018399,0.00029127,0.0,0 STARLINK-4295,1 52996U 22076L   23312.05456245  .00029127  00000-0  18399-2 0  9993,2 52996  53.2178 321.7497 0001842 107.6408 252.4785 15.08854034 74599,6917.837,95.437,540.977,538.428,0.0
52996.0,STARLINK-4295,PAYLOAD,2023-11-08 06:04:43,15.08873172,0.0001564,53.2177,320.8583,102.661,257.4557,0.0020545,0.00032591,0.0,0 STARLINK-4295,1 52996U 22076L   23312.25327866  .00032591  00000-0  20545-2 0  9996,2 52996  53.2177 320.8583 0001564 102.6610 257.4557 15.08873172 74153,6917.779,95.435,540.726,538.562,0.0
52996.0,STARLINK-4295,PAYLOAD,2023-11-08 17:12:24,15.08879993,0.0001525,53.2181,318.7796,100.6439,259.4725,0.0007043,0.00010951,0.0,0 STARLINK-4295,1 52996U 22076L   23312.71695021  .00010951  00000-0  70430-3 0  9993,2 52996  53.2181 318.7796 0001525 100.6439 259.4725 15.08879993 74699,6917.758,95.435,540.678,538.568,0.0
52996.0,STARLINK-4295,PAYLOAD,2023-11-09 04:20:06,15.08852341,0.0001616,53.2179,316.6986,98.878,261.2395,0.00099489,0.00015586,0.0,0 STARLINK-4295,1 52996U 22076L   23313.18063034  .00015586  00000-0  99489-3 0  9992,2 52996  53.2179 316.6986 0001616  98.8780 261.2395 15.08852341 74762,6917.843,95.437,540.826,538.59,0.0
52996.0,STARLINK-4295,PAYLOAD,2023-11-09 10:41:38,15.08859205,0.0001711,53.2181,315.5088,98.8994,261.2192,0.0011177,0.00017554,0.0,0 STARLINK-4295,1 52996U 22076L   23313.44558737  .00017554  00000-0  11177-2 0  9994,2 52996  53.2181 315.5088 0001711  98.8994 261.2192 15.08859205 74333,6917.822,95.436,540.87,538.503,0.0
52996.0,STARLINK-4295,PAYLOAD,2023-11-10 04:10:53,15.08838867,0.000132,53.2165,312.2368,94.8951,265.2192,0.00019378,2.797e-05,0.0,0 STARLINK-4295,1 52996U 22076L   23314.17423004  .00002797  00000-0  19378-3 0  9998,2 52996  53.2165 312.2368 0001320  94.8951 265.2192 15.08838867 74914,6917.884,95.438,540.662,538.836,0.0
52996.0,STARLINK-4295,PAYLOAD,2023-11-10 10:32:25,15.08847465,0.0001619,53.2172,311.0457,89.3942,270.7236,0.00037647,5.71e-05,0.0,0 STARLINK-4295,1 52996U 22076L   23314.43918893  .00005710  00000-0  37647-3 0  9999,2 52996  53.2172 311.0457 0001619  89.3942 270.7236 15.08847465 74484,6917.858,95.437,540.843,538.603,0.0
52996.0,STARLINK-4295,PAYLOAD,2023-11-10 16:53:58,15.08842583,0.0001776,53.2183,309.8543,83.2456,276.8738,0.00023238,3.412e-05,0.0,0 STARLINK-4295,1 52996U 22076L   23314.70415130  .00003412  00000-0  23238-3 0  9993,2 52996  53.2183 309.8543 0001776  83.2456 276.8738 15.08842583 74529,6917.872,95.437,540.966,538.509,0.0
52996.0,STARLINK-4295,PAYLOAD,2023-11-11 08:47:50,15.08840436,0.0001751,53.2181,306.8805,83.7468,276.3724,4.6136e-05,4.46e-06,0.0,0 STARLINK-4295,1 52996U 22076L   23315.36655325  .00000446  00000-0  46136-4 0  9995,2 52996  53.2181 306.8805 0001751  83.7468 276.3724 15.08840436 75094,6917.879,95.438,540.955,538.533,0.0
52996.0,STARLINK-4295,PAYLOAD,2023-11-11 16:44:45,15.08844916,0.0001495,53.2168,305.3993,80.1337,279.9824,1.7225e-05,-1.4e-07,0.0,0 STARLINK-4295,1 52996U 22076L   23315.69775045 -.00000014  00000-0  17225-4 0  9992,2 52996  53.2168 305.3993 0001495  80.1337 279.9824 15.08844916 74672,6917.865,95.437,540.765,538.696,0.0
52996.0,STARLINK-4295,PAYLOAD,2023-11-12 08:38:36,15.08850601,0.0001492,53.2162,302.4227,91.9877,268.1286,0.00029658,4.437e-05,0.0,0 STARLINK-4295,1 52996U 22076L   23316.36014948  .00004437  00000-0  29658-3 0  9999,2 52996  53.2162 302.4227 0001492  91.9877 268.1286 15.08850601 74771,6917.848,95.437,540.745,538.681,0.0
52996.0,STARLINK-4295,PAYLOAD,2023-11-12 16:35:33,15.08836114,0.0001642,53.2167,300.9334,88.5634,271.5546,1.8815e-05,1.1e-07,0.0,0 STARLINK-4295,1 52996U 22076L   23316.69135566  .00000011  00000-0  18815-4 0  9993,2 52996  53.2167 300.9334 0001642  88.5634 271.5546 15.08836114 75296,6917.892,95.438,540.893,538.621,0.0
52996.0,STARLINK-4295,PAYLOAD,2023-11-13 08:29:24,15.08846043,0.0001519,53.2173,297.958,97.1032,263.0133,0.00020665,3.003e-05,0.0,0 STARLINK-4295,1 52996U 22076L   23317.35375297  .00003003  00000-0  20665-3 0  9993,2 52996  53.2173 297.9580 0001519  97.1032 263.0133 15.08846043 74921,6917.862,95.437,540.778,538.676,0.0
52996.0,STARLINK-4295,PAYLOAD,2023-11-13 16:26:19,15.08844887,0.0001543,53.2174,296.4711,97.4951,262.6217,0.00021133,3.077e-05,0.0,0 STARLINK-4295,1 52996U 22076L   23317.68495322  .00003077  00000-0  21133-3 0  9993,2 52996  53.2174 296.4711 0001543  97.4951 262.6217 15.08844887 74979,6917.865,95.437,540.798,538.663,0.0
52996.0,STARLINK-4295,PAYLOAD,2023-11-14 03:34:01,15.08848403,0.0001573,53.2171,294.3903,97.7953,262.3218,0.00027131,4.034e-05,0.0,0 STARLINK-4295,1 52996U 22076L   23318.14863240  .00004034  00000-0  27131-3 0  9991,2 52996  53.2171 294.3903 0001573  97.7953 262.3218 15.08848403 75511,6917.855,95.437,540.808,538.632,0.0
52996.0,STARLINK-4295,PAYLOAD,2023-11-14 08:20:11,15.08851473,0.0001595,53.2176,293.4974,100.5846,259.5326,0.00030447,4.562e-05,0.0,0 STARLINK-4295,1 52996U 22076L   23318.34735033  .00004562  00000-0  30447-3 0  9991,2 52996  53.2176 293.4974 0001595 100.5846 259.5326 15.08851473 75072,6917.845,95.437,540.814,538.607,0.0
52996.0,STARLINK-4295,PAYLOAD,2023-11-15 03:24:49,15.08843903,0.0001675,53.2183,289.9316,98.7579,261.3603,0.00016443,2.33e-05,0.0,0 STARLINK-4295,1 52996U 22076L   23319.14223487  .00002330  00000-0  16443-3 0  9996,2 52996  53.2183 289.9316 0001675  98.7579 261.3603 15.08843903 75663,6917.868,95.437,540.892,538.575,0.0
52996.0,STARLINK-4295,PAYLOAD,2023-11-15 22:29:26,15.08843237,0.0001647,53.2182,286.3628,100.6957,259.422,0.00018943,2.728e-05,0.0,0 STARLINK-4295,1 52996U 22076L   23319.93711536  .00002728  00000-0  18943-3 0  9998,2 52996  53.2182 286.3628 0001647 100.6957 259.4220 15.08843237 75316,6917.87,95.437,540.875,538.596,0.0
52996.0,STARLINK-4295,PAYLOAD,2023-11-16 03:15:35,15.08848938,0.0001721,53.2183,285.4713,103.1278,256.9907,0.00025882,3.834e-05,0.0,0 STARLINK-4295,1 52996U 22076L   23320.13583325  .00003834  00000-0  25882-3 0  9994,2 52996  53.2183 285.4713 0001721 103.1278 256.9907 15.08848938 75349,6917.853,95.437,540.909,538.528,0.0
52996.0,STARLINK-4295,PAYLOAD,2023-11-16 22:20:13,15.08839315,0.0001741,53.2192,281.9086,102.4051,257.7136,6.4069e-05,7.32e-06,0.0,0 STARLINK-4295,1 52996U 22076L   23320.93071670  .00000732  00000-0  64069-4 0  9992,2 52996  53.2192 281.9086 0001741 102.4051 257.7136 15.08839315 75461,6917.882,95.438,540.952,538.543,0.0
52996.0,STARLINK-4295,PAYLOAD,2023-11-17 04:41:46,15.08840128,0.0001543,53.2185,280.7179,96.7007,263.4161,8.4765e-05,1.061e-05,0.0,0 STARLINK-4295,1 52996U 22076L   23321.19567664  .00001061  00000-0  84765-4 0  9995,2 52996  53.2185 280.7179 0001543  96.7007 263.4161 15.08840128 75971,6917.88,95.438,540.812,538.678,0.0
52996.0,STARLINK-4295,PAYLOAD,2023-11-17 06:17:09,15.08843308,0.0001625,53.2183,280.419,97.9054,262.2123,0.0001414,1.963e-05,0.0,0 STARLINK-4295,1 52996U 22076L   23321.26191526  .00001963  00000-0  14140-3 0  9993,2 52996  53.2183 280.4190 0001625  97.9054 262.2123 15.08843308 75513,6917.87,95.437,540.859,538.611,0.0
52996.0,STARLINK-4295,PAYLOAD,2023-11-18 02:57:10,15.08836129,0.0001645,53.2182,276.5536,100.617,259.5007,-3.5512e-05,-8.53e-06,0.0,0 STARLINK-4295,1 52996U 22076L   23322.12304057 -.00000853  00000-0 -35512-4 0  9990,2 52996  53.2182 276.5536 0001645 100.6170 259.5007 15.08836129 76115,6917.892,95.438,540.895,538.619,0.0
52996.0,STARLINK-4295,PAYLOAD,2023-11-18 14:04:52,15.08841054,0.0001549,53.2177,274.4703,91.706,268.4109,6.0959e-06,-1.91e-06,0.0,0 STARLINK-4295,1 52996U 22076L   23322.58671918 -.00000191  00000-0  60959-5 0  9991,2 52996  53.2177 274.4703 0001549  91.7060 268.4109 15.08841054 75713,6917.877,95.437,540.814,538.671,0.0
